NORAD_CAT_ID,OBJECT_NAME,OBJECT_TYPE,EPOCH,MEAN_MOTION,ECCENTRICITY,INCLINATION,RA_OF_ASC_NODE,ARG_OF_PERICENTER,MEAN_ANOMALY,BSTAR,MEAN_MOTION_DOT,MEAN_MOTION_DDOT,TLE_LINE0,TLE_LINE1,TLE_LINE2,SEMIMAJOR_AXIS,PERIOD,APOGEE,PERIGEE,DECAYED
54181.0,STARLINK-5227,PAYLOAD,2023-11-03 05:32:34,15.08857319,0.0001595,53.2183,253.1814,98.9878,261.1295,0.00039212,5.961e-05,0.0,0 STARLINK-5227,1 54181U 22141AA  23307.23095040  .00005961  00000-0  39212-3 0  9998,2 54181  53.2183 253.1814 0001595  98.9878 261.1295 15.08857319 56415,6917.827,95.436,540.796,538.589,0.0
54181.0,STARLINK-5227,PAYLOAD,2023-11-03 19:51:02,15.08845667,0.00017,53.2182,250.5028,96.4647,263.6539,0.00014946,2.092e-05,0.0,0 STARLINK-5227,1 54181U 22141AA  23307.82711310  .00002092  00000-0  14946-3 0  9997,2 54181  53.2182 250.5028 0001700  96.4647 263.6539 15.08845667 56733,6917.863,95.437,540.904,538.552,0.0
54181.0,STARLINK-5227,PAYLOAD,2023-11-04 05:23:21,15.0884572,0.0001351,53.2166,248.7176,87.1941,272.9206,0.00015223,2.136e-05,0.0,0 STARLINK-5227,1 54181U 22141AA  23308.22455211  .00002136  00000-0  15223-3 0  9995,2 54181  53.2166 248.7176 0001351  87.1941 272.9206 15.08845720 56569,6917.863,95.437,540.663,538.793,0.0
54181.0,STARLINK-5227,PAYLOAD,2023-11-05 03:38:45,15.08859815,0.0001442,53.2174,244.5547,89.0357,271.08,0.00047779,7.328e-05,0.0,0 STARLINK-5227,1 54181U 22141AA  23309.15191108  .00007328  00000-0  47779-3 0  9999,2 54181  53.2174 244.5547 0001442  89.0357 271.0800 15.08859815 56938,6917.82,95.436,540.682,538.687,0.0
54181.0,STARLINK-5227,PAYLOAD,2023-11-05 13:11:03,15.08854334,0.0001528,53.2171,242.7723,87.8159,272.3009,0.00037463,5.682e-05,0.0,0 STARLINK-5227,1 54181U 22141AA  23309.54935112  .00005682  00000-0  37463-3 0  9993,2 54181  53.2171 242.7723 0001528  87.8159 272.3009 15.08854334 56769,6917.837,95.437,540.759,538.645,0.0
54181.0,STARLINK-5227,PAYLOAD,2023-11-06 01:54:07,15.08882829,0.0001312,53.2164,240.388,115.665,244.4478,0.0010939,0.00017185,0.0,0 STARLINK-5227,1 54181U 22141AA  23310.07925554  .00017185  00000-0  10939-2 0  9991,2 54181  53.2164 240.3880 0001312 115.6650 244.4478 15.08882829 57071,6917.749,95.435,540.522,538.707,0.0
54181.0,STARLINK-5227,PAYLOAD,2023-11-06 13:01:48,15.08881943,0.0001475,53.2173,238.3066,94.929,265.187,0.00054859,8.464e-05,0.0,0 STARLINK-5227,1 54181U 22141AA  23310.54292584  .00008464  00000-0  54859-3 0  9993,2 54181  53.2173 238.3066 0001475  94.9290 265.1870 15.08881943 56917,6917.752,95.435,540.638,538.597,0.0
54181.0,STARLINK-5227,PAYLOAD,2023-11-06 22:34:08,15.08827993,0.0001143,53.2171,236.5273,69.4755,290.636,-0.0010031,-0.00016211,0.0,0 STARLINK-5227,1 54181U 22141AA  23310.94037375 -.00016211  00000-0 -10031-2 0  9996,2 54181  53.2171 236.5273 0001143  69.4755 290.6360 15.08827993 56978,6917.917,95.438,540.573,538.991,0.0
54181.0,STARLINK-5227,PAYLOAD,2023-11-07 01:44:55,15.08803056,0.0001274,53.2173,235.9322,82.615,277.4987,-0.0012345,-0.00019861,0.0,0 STARLINK-5227,1 54181U 22141AA  23311.07286804 -.00019861  00000-0 -12345-2 0  9998,2 54181  53.2173 235.9322 0001274  82.6150 277.4987 15.08803056 57220,6917.993,95.44,540.74,538.977,0.0
54181.0,STARLINK-5227,PAYLOAD,2023-11-08 01:35:43,15.0882973,0.0001472,53.2173,231.47,90.3696,269.7465,0.00029229,4.366e-05,0.0,0 STARLINK-5227,1 54181U 22141AA  23312.06647958  .00004366  00000-0  29229-3 0  9991,2 54181  53.2173 231.4700 0001472  90.3696 269.7465 15.08829730 57370,6917.912,95.438,540.795,538.758,0.0
54181.0,STARLINK-5227,PAYLOAD,2023-11-08 22:15:45,15.08838564,0.0001344,53.2177,227.6046,90.3719,269.7428,0.00059225,9.15e-05,0.0,0 STARLINK-5227,1 54181U 22141AA  23312.92760565  .00009150  00000-0  59225-3 0  9991,2 54181  53.2177 227.6046 0001344  90.3719 269.7428 15.08838564 57271,6917.885,95.438,540.68,538.82,0.0
54181.0,STARLINK-5227,PAYLOAD,2023-11-09 01:26:31,15.08852213,0.0001288,53.2174,227.0102,82.6363,277.4775,0.00087319,0.00013641,0.0,0 STARLINK-5227,1 54181U 22141AA  23313.06008253  .00013641  00000-0  87319-3 0  9991,2 54181  53.2174 227.0102 0001288  82.6363 277.4775 15.08852213 57527,6917.843,95.437,540.599,538.817,0.0
54181.0,STARLINK-5227,PAYLOAD,2023-11-09 22:06:31,15.08843051,0.0001472,53.2177,223.1475,106.9401,253.1752,6.9236e-05,8.14e-06,0.0,0 STARLINK-5227,1 54181U 22141AA  23313.92120133  .00000814  00000-0  69236-4 0  9995,2 54181  53.2177 223.1475 0001472 106.9401 253.1752 15.08843051 57423,6917.871,95.437,540.754,538.718,0.0
54181.0,STARLINK-5227,PAYLOAD,2023-11-10 01:17:17,15.08848445,0.0001459,53.2172,222.5506,107.9627,252.1524,0.00019809,2.867e-05,0.0,0 STARLINK-5227,1 54181U 22141AA  23314.05367975  .00002867  00000-0  19809-3 0  9997,2 54181  53.2172 222.5506 0001459 107.9627 252.1524 15.08848445 57677,6917.855,95.437,540.729,538.71,0.0
54181.0,STARLINK-5227,PAYLOAD,2023-11-10 10:49:36,15.0884651,0.0001169,53.217,220.7633,89.4843,270.6283,0.00010799,1.432e-05,0.0,0 STARLINK-5227,1 54181U 22141AA  23314.45111580  .00001432  00000-0  10799-3 0  9996,2 54181  53.2170 220.7633 0001169  89.4843 270.6283 15.08846510 57508,6917.86,95.437,540.534,538.917,0.0
54181.0,STARLINK-5227,PAYLOAD,2023-11-11 02:43:28,15.08839705,0.0001563,53.2178,217.7905,87.355,272.7621,-1.5556e-05,-5.36e-06,0.0,0 STARLINK-5227,1 54181U 22141AA  23315.11352114 -.00000536  00000-0 -15556-4 0  9993,2 54181  53.2178 217.7905 0001563  87.3550 272.7621 15.08839705 57837,6917.881,95.438,540.828,538.665,0.0
54181.0,STARLINK-5227,PAYLOAD,2023-11-11 04:18:51,15.08840952,0.0001561,53.2174,217.4931,90.9034,269.2137,4.708e-05,4.61e-06,0.0,0 STARLINK-5227,1 54181U 22141AA  23315.17976134  .00000461  00000-0  47080-4 0  9995,2 54181  53.2174 217.4931 0001561  90.9034 269.2137 15.08840952 57619,6917.877,95.437,540.822,538.663,0.0
54181.0,STARLINK-5227,PAYLOAD,2023-11-11 21:48:06,15.08837337,0.0001607,53.2175,214.2211,97.4478,262.6696,6.128e-05,6.87e-06,0.0,0 STARLINK-5227,1 54181U 22141AA  23315.90840706  .00000687  00000-0  61280-4 0  9999,2 54181  53.2175 214.2211 0001607  97.4478 262.6696 15.08837337 57723,6917.889,95.438,540.865,538.642,0.0
54181.0,STARLINK-5227,PAYLOAD,2023-11-12 10:31:11,15.08840985,0.0001468,53.2175,211.8432,96.9452,263.1707,1.4113e-05,-6.3e-07,0.0,0 STARLINK-5227,1 54181U 22141AA  23316.43832704 -.00000063  00000-0  14113-4 0  9999,2 54181  53.2175 211.8432 0001468  96.9452 263.1707 15.08840985 58039,6917.877,95.437,540.758,538.727,0.0
54181.0,STARLINK-5227,PAYLOAD,2023-11-12 16:52:44,15.08833676,0.000138,53.2167,210.6546,95.0852,265.0298,0.00015835,2.233e-05,0.0,0 STARLINK-5227,1 54181U 22141AA  23316.70329272  .00002233  00000-0  15835-3 0  9991,2 54181  53.2167 210.6546 0001380  95.0852 265.0298 15.08833676 58079,6917.9,95.438,540.719,538.81,0.0
54181.0,STARLINK-5227,PAYLOAD,2023-11-12 21:38:53,15.08837065,0.0001397,53.2165,209.7633,93.8012,266.314,0.00017858,2.555e-05,0.0,0 STARLINK-5227,1 54181U 22141AA  23316.90201138  .00002555  00000-0  17858-3 0  9997,2 54181  53.2165 209.7633 0001397  93.8012 266.3140 15.08837065 57878,6917.889,95.438,540.721,538.788,0.0
54181.0,STARLINK-5227,PAYLOAD,2023-11-13 10:21:58,15.08843515,0.0001436,53.2158,207.3856,91.942,268.1737,0.00014085,1.955e-05,0.0,0 STARLINK-5227,1 54181U 22141AA  23317.43192930  .00001955  00000-0  14085-3 0  9997,2 54181  53.2158 207.3856 0001436  91.9420 268.1737 15.08843515 57955,6917.87,95.437,540.728,538.741,0.0
54181.0,STARLINK-5227,PAYLOAD,2023-11-13 23:05:03,15.08844814,0.0001457,53.2154,205.0064,94.2559,265.86,0.00013707,1.894e-05,0.0,0 STARLINK-5227,1 54181U 22141AA  23317.96184897  .00001894  00000-0  13707-3 0  9990,2 54181  53.2154 205.0064 0001457  94.2559 265.8600 15.08844814 58035,6917.866,95.437,540.739,538.723,0.0
54181.0,STARLINK-5227,PAYLOAD,2023-11-14 10:12:45,15.08847613,0.0001432,53.2153,202.925,93.6433,266.4722,0.00015936,2.25e-05,0.0,0 STARLINK-5227,1 54181U 22141AA  23318.42552650  .00002250  00000-0  15936-3 0  9991,2 54181  53.2153 202.9250 0001432  93.6433 266.4722 15.08847613 58104,6917.857,95.437,540.713,538.731,0.0
54181.0,STARLINK-5227,PAYLOAD,2023-11-14 16:34:18,15.08841248,0.0001658,53.2169,201.736,92.2358,267.8824,0.00011758,1.584e-05,0.0,0 STARLINK-5227,1 54181U 22141AA  23318.69049063  .00001584  00000-0  11758-3 0  9996,2 54181  53.2169 201.7360 0001658  92.2358 267.8824 15.08841248 58376,6917.877,95.437,540.889,538.595,0.0
54181.0,STARLINK-5227,PAYLOAD,2023-11-14 22:55:50,15.08844818,0.0001667,53.2165,200.5461,95.5095,264.6087,0.00015229,2.137e-05,0.0,0 STARLINK-5227,1 54181U 22141AA  23318.95544811  .00002137  00000-0  15229-3 0  9998,2 54181  53.2165 200.5461 0001667  95.5095 264.6087 15.08844818 58186,6917.866,95.437,540.884,538.577,0.0
54181.0,STARLINK-5227,PAYLOAD,2023-11-15 22:46:37,15.08844129,0.0001839,53.2135,196.0857,92.6091,267.5112,-3.575e-05,-8.57e-06,0.0,0 STARLINK-5227,1 54181U 22141AA  23319.94904624 -.00000857  00000-0 -35750-4 0  9991,2 54181  53.2135 196.0857 0001839  92.6091 267.5112 15.08844129 58339,6917.868,95.437,541.005,538.461,0.0
54181.0,STARLINK-5227,PAYLOAD,2023-11-16 01:57:24,15.08840884,0.0001754,53.2157,195.4913,96.433,263.6862,6.0751e-05,6.79e-06,0.0,0 STARLINK-5227,1 54181U 22141AA  23320.08152911  .00000679  00000-0  60751-4 0  9991,2 54181  53.2157 195.4913 0001754  96.4330 263.6862 15.08840884 58583,6917.878,95.437,540.956,538.529,0.0
54181.0,STARLINK-5227,PAYLOAD,2023-11-16 22:37:24,15.08852931,0.0001355,53.2117,191.6232,94.7536,265.3611,-0.00015162,-2.701e-05,0.0,0 STARLINK-5227,1 54181U 22141AA  23320.94264212 -.00002701  00000-0 -15162-3 0  9999,2 54181  53.2117 191.6232 0001355  94.7536 265.3611 15.08852931 58483,6917.841,95.437,540.643,538.768,0.0
54181.0,STARLINK-5227,PAYLOAD,2023-11-17 08:09:43,15.08838356,0.0001459,53.2161,189.84,92.4314,267.6845,7.8158e-05,9.56e-06,0.0,0 STARLINK-5227,1 54181U 22141AA  23321.34008906  .00000956  00000-0  78158-4 0  9993,2 54181  53.2161 189.8400 0001459  92.4314 267.6845 15.08838356 58773,6917.885,95.438,540.76,538.741,0.0
